{
    "links": {
        "self": "http://www.neowsapp.com/rest/v1/neo/3698490?api_key=iIulBulltgU6a56xZRHN4H3l9WmuAYTsLGpBGhQ2"
    },
    "id": "3698490",
    "neo_reference_id": "3698490",
    "name": "(2014 HL196)",
    "designation": "2014 HL196",
    "nasa_jpl_url": "http://ssd.jpl.nasa.gov/sbdb.cgi?sstr=3698490",
    "absolute_magnitude_h": 28.3,
    "estimated_diameter": {
        "kilometers": {
            "estimated_diameter_min": 0.0058150704,
            "estimated_diameter_max": 0.0130028927
        },
        "meters": {
            "estimated_diameter_min": 5.8150703965,
            "estimated_diameter_max": 13.0028927004
        },
        "miles": {
            "estimated_diameter_min": 0.0036133161,
            "estimated_diameter_max": 0.0080796204
        },
        "feet": {
            "estimated_diameter_min": 19.0783155595,
            "estimated_diameter_max": 42.6604104873
        }
    },
    "is_potentially_hazardous_asteroid": false,
    "close_approach_data": [
        {
            "close_approach_date": "2014-04-28",
            "close_approach_date_full": "2014-Apr-28 07:18",
            "epoch_date_close_approach": 1398669480000,
            "relative_velocity": {
                "kilometers_per_second": "3.8081901172",
                "kilometers_per_hour": "13709.4844220187",
                "miles_per_hour": "8518.540473226"
            },
            "miss_distance": {
                "astronomical": "0.0825803911",
                "lunar": "32.1237721379",
                "kilometers": "12353850.612326957",
                "miles": "7676326.8144957266"
            },
            "orbiting_body": "Earth"
        }
    ],
    "orbital_data": {
        "orbit_id": "6",
        "orbit_determination_date": "2017-04-06 08:41:04",
        "first_observation_date": "2014-04-23",
        "last_observation_date": "2014-05-02",
        "data_arc_in_days": 9,
        "observations_used": 25,
        "orbit_uncertainty": "9",
        "minimum_orbit_intersection": ".0825638",
        "jupiter_tisserand_invariant": "4.587",
        "epoch_osculation": "2456773.5",
        "eccentricity": ".253358419544649",
        "semi_major_axis": "1.458497769781236",
        "inclination": "5.574419584731471",
        "ascending_node_longitude": "34.56756822153679",
        "orbital_period": "643.3644814691341",
        "perihelion_distance": "1.088975079920067",
        "perihelion_argument": "180.8020870814863",
        "aphelion_distance": "1.828020459642406",
        "perihelion_time": "2456773.503503070723",
        "mean_anomaly": "359.9980398273505",
        "mean_motion": ".5595584002056403",
        "equinox": "J2000",
        "orbit_class": {
            "orbit_class_type": "AMO",
            "orbit_class_description": "Near-Earth asteroid orbits similar to that of 1221 Amor",
            "orbit_class_range": "1.017 AU < q (perihelion) < 1.3 AU"
        }
    },
    "is_sentry_object": false
}